{
  "type": "FeatureCollection",
  "features": [
    {
      "type": "Feature",
      "properties": {
        "norad_id": 34003,
        "name": "COSMOS 2251 DEB",
        "group": "cosmos-2251-debris",
        "lat": 74.05496140424157,
        "lon": 4.1491772382687255,
        "alt_km": 863.8145614128962,
        "timestamp": "2025-12-20T16:47:36.678126+00:00",
        "meta_object_name": "COSMOS 2251 DEB",
        "meta_object_id": "1993-036GN",
        "meta_epoch": "2025-12-20T04:14:07.272384",
        "meta_mean_motion": 13.84190171,
        "meta_eccentricity": 0.0274902,
        "meta_inclination": 74.0776,
        "meta_ra_of_asc_node": 272.6258,
        "meta_arg_of_pericenter": 22.9254,
        "meta_mean_anomaly": 338.3867,
        "meta_ephemeris_type": 0,
        "meta_classification_type": "U",
        "meta_norad_cat_id": 34003,
        "meta_element_set_no": 999,
        "meta_rev_at_epoch": 84528,
        "meta_bstar": 0.0014188,
        "meta_mean_motion_dot": 2.098e-05,
        "meta_mean_motion_ddot": 0,
        "tle_line1": "1 34003U 93036GN  25354.17647306  .00002098  00000+0  14188-2 0  9996",
        "tle_line2": "2 34003  74.0776 272.6258 0274902  22.9254 338.3867 13.84190171845283"
      },
      "geometry": {
        "type": "Point",
        "coordinates": [
          4.1491772382687255,
          74.05496140424157
        ]
      }
    },
    {
      "type": "Feature",
      "properties": {
        "norad_id": 34004,
        "name": "COSMOS 2251 DEB",
        "group": "cosmos-2251-debris",
        "lat": 34.6740546448921,
        "lon": 106.76256861352229,
        "alt_km": 749.0576384386441,
        "timestamp": "2025-12-20T16:47:36.678136+00:00",
        "meta_object_name": "COSMOS 2251 DEB",
        "meta_object_id": "1993-036GP",
        "meta_epoch": "2025-12-19T05:20:10.228704",
        "meta_mean_motion": 14.49065638,
        "meta_eccentricity": 0.0033435,
        "meta_inclination": 74.0356,
        "meta_ra_of_asc_node": 300.9531,
        "meta_arg_of_pericenter": 312.416,
        "meta_mean_anomaly": 47.4172,
        "meta_ephemeris_type": 0,
        "meta_classification_type": "U",
        "meta_norad_cat_id": 34004,
        "meta_element_set_no": 999,
        "meta_rev_at_epoch": 88124,
        "meta_bstar": 0.00086157,
        "meta_mean_motion_dot": 3.268e-05,
        "meta_mean_motion_ddot": 0,
        "tle_line1": "1 34004U 93036GP  25353.22234061  .00003268  00000+0  86157-3 0  9998",
        "tle_line2": "2 34004  74.0356 300.9531 0033435 312.4160  47.4172 14.49065638881248"
      },
      "geometry": {
        "type": "Point",
        "coordinates": [
          106.76256861352229,
          34.6740546448921
        ]
      }
    },
    {
      "type": "Feature",
      "properties": {
        "norad_id": 34005,
        "name": "COSMOS 2251 DEB",
        "group": "cosmos-2251-debris",
        "lat": 12.328821377119326,
        "lon": 15.356243165432362,
        "alt_km": 771.1884728867262,
        "timestamp": "2025-12-20T16:47:36.678147+00:00",
        "meta_object_name": "COSMOS 2251 DEB",
        "meta_object_id": "1993-036GQ",
        "meta_epoch": "2025-12-19T07:28:53.752800",
        "meta_mean_motion": 14.4030881,
        "meta_eccentricity": 0.0021069,
        "meta_inclination": 74.0437,
        "meta_ra_of_asc_node": 201.5051,
        "meta_arg_of_pericenter": 318.6209,
        "meta_mean_anomaly": 214.5502,
        "meta_ephemeris_type": 0,
        "meta_classification_type": "U",
        "meta_norad_cat_id": 34005,
        "meta_element_set_no": 999,
        "meta_rev_at_epoch": 88473,
        "meta_bstar": 8.2213e-05,
        "meta_mean_motion_dot": 2.35e-06,
        "meta_mean_motion_ddot": 0,
        "tle_line1": "1 34005U 93036GQ  25353.31173325  .00000235  00000+0  82213-4 0  9995",
        "tle_line2": "2 34005  74.0437 201.5051 0021069 318.6209 214.5502 14.40308810884738"
      },
      "geometry": {
        "type": "Point",
        "coordinates": [
          15.356243165432362,
          12.328821377119326
        ]
      }
    },
    {
      "type": "Feature",
      "properties": {
        "norad_id": 34006,
        "name": "COSMOS 2251 DEB",
        "group": "cosmos-2251-debris",
        "lat": -18.364968905108217,
        "lon": -47.30377168103018,
        "alt_km": 591.9532699232013,
        "timestamp": "2025-12-20T16:47:36.678157+00:00",
        "meta_object_name": "COSMOS 2251 DEB",
        "meta_object_id": "1993-036GR",
        "meta_epoch": "2025-12-20T11:22:33.763296",
        "meta_mean_motion": 14.95235799,
        "meta_eccentricity": 0.0011334,
        "meta_inclination": 74.0536,
        "meta_ra_of_asc_node": 127.7041,
        "meta_arg_of_pericenter": 64.0871,
        "meta_mean_anomaly": 0.2864,
        "meta_ephemeris_type": 0,
        "meta_classification_type": "U",
        "meta_norad_cat_id": 34006,
        "meta_element_set_no": 999,
        "meta_rev_at_epoch": 88784,
        "meta_bstar": 0.0021723,
        "meta_mean_motion_dot": 0.00023977,
        "meta_mean_motion_ddot": 0,
        "tle_line1": "1 34006U 93036GR  25354.47400189  .00023977  00000+0  21723-2 0  9990",
        "tle_line2": "2 34006  74.0536 127.7041 0011334  64.0871   0.2864 14.95235799887849"
      },
      "geometry": {
        "type": "Point",
        "coordinates": [
          -47.30377168103018,
          -18.364968905108217
        ]
      }
    },
    {
      "type": "Feature",
      "properties": {
        "norad_id": 34007,
        "name": "COSMOS 2251 DEB",
        "group": "cosmos-2251-debris",
        "lat": -8.670370770514168,
        "lon": -30.93187020940512,
        "alt_km": 693.304977421446,
        "timestamp": "2025-12-20T16:47:36.678166+00:00",
        "meta_object_name": "COSMOS 2251 DEB",
        "meta_object_id": "1993-036GS",
        "meta_epoch": "2025-12-20T05:21:39.955968",
        "meta_mean_motion": 14.64833555,
        "meta_eccentricity": 0.0044242,
        "meta_inclination": 74.0189,
        "meta_ra_of_asc_node": 332.4894,
        "meta_arg_of_pericenter": 104.9698,
        "meta_mean_anomaly": 255.6374,
        "meta_ephemeris_type": 0,
        "meta_classification_type": "U",
        "meta_norad_cat_id": 34007,
        "meta_element_set_no": 999,
        "meta_rev_at_epoch": 89189,
        "meta_bstar": 0.00047353,
        "meta_mean_motion_dot": 2.534e-05,
        "meta_mean_motion_ddot": 0,
        "tle_line1": "1 34007U 93036GS  25354.22337912  .00002534  00000+0  47353-3 0  9991",
        "tle_line2": "2 34007  74.0189 332.4894 0044242 104.9698 255.6374 14.64833555891892"
      },
      "geometry": {
        "type": "Point",
        "coordinates": [
          -30.93187020940512,
          -8.670370770514168
        ]
      }
    },
    {
      "type": "Feature",
      "properties": {
        "norad_id": 34008,
        "name": "COSMOS 2251 DEB",
        "group": "cosmos-2251-debris",
        "lat": -46.415016569704314,
        "lon": 153.47505357141293,
        "alt_km": 784.8610944218453,
        "timestamp": "2025-12-20T16:47:36.678177+00:00",
        "meta_object_name": "COSMOS 2251 DEB",
        "meta_object_id": "1993-036GT",
        "meta_epoch": "2025-12-20T09:36:02.299968",
        "meta_mean_motion": 14.33151114,
        "meta_eccentricity": 0.0024558,
        "meta_inclination": 74.0345,
        "meta_ra_of_asc_node": 316.5181,
        "meta_arg_of_pericenter": 310.4955,
        "meta_mean_anomaly": 172.938,
        "meta_ephemeris_type": 0,
        "meta_classification_type": "U",
        "meta_norad_cat_id": 34008,
        "meta_element_set_no": 999,
        "meta_rev_at_epoch": 88074,
        "meta_bstar": 8.7255e-05,
        "meta_mean_motion_dot": 2.14e-06,
        "meta_mean_motion_ddot": 0,
        "tle_line1": "1 34008U 93036GT  25354.40002662  .00000214  00000+0  87255-4 0  9992",
        "tle_line2": "2 34008  74.0345 316.5181 0024558 310.4955 172.9380 14.33151114880747"
      },
      "geometry": {
        "type": "Point",
        "coordinates": [
          153.47505357141293,
          -46.415016569704314
        ]
      }
    },
    {
      "type": "Feature",
      "properties": {
        "norad_id": 34009,
        "name": "COSMOS 2251 DEB",
        "group": "cosmos-2251-debris",
        "lat": -73.75006269827067,
        "lon": -138.50011919793835,
        "alt_km": 798.2540279845307,
        "timestamp": "2025-12-20T16:47:36.678187+00:00",
        "meta_object_name": "COSMOS 2251 DEB",
        "meta_object_id": "1993-036GU",
        "meta_epoch": "2025-12-20T09:25:26.896224",
        "meta_mean_motion": 14.33227925,
        "meta_eccentricity": 0.0026793,
        "meta_inclination": 74.0374,
        "meta_ra_of_asc_node": 322.9505,
        "meta_arg_of_pericenter": 30.3083,
        "meta_mean_anomaly": 93.2477,
        "meta_ephemeris_type": 0,
        "meta_classification_type": "U",
        "meta_norad_cat_id": 34009,
        "meta_element_set_no": 999,
        "meta_rev_at_epoch": 88055,
        "meta_bstar": 0.00010775,
        "meta_mean_motion_dot": 2.71e-06,
        "meta_mean_motion_ddot": 0,
        "tle_line1": "1 34009U 93036GU  25354.39267241  .00000271  00000+0  10775-3 0  9992",
        "tle_line2": "2 34009  74.0374 322.9505 0026793  30.3083  93.2477 14.33227925880559"
      },
      "geometry": {
        "type": "Point",
        "coordinates": [
          -138.50011919793835,
          -73.75006269827067
        ]
      }
    }
  ]
}